CCSDS_OMM_VERS = 2.0
CREATION_DATE  = 
ORIGINATOR     = 

OBJECT_NAME    = STARLINK-36414
OBJECT_ID      = 2026-008Z
CENTER_NAME    = EARTH
REF_FRAME      = TEME
TIME_SYSTEM    = UTC
MEAN_ELEMENT_THEORY = SGP/SGP4

EPOCH          = 2026-01-28T22:00:01.999584
MEAN_MOTION    = 15.84423634
ECCENTRICITY   = .00017521
INCLINATION    = 43.0016
RA_OF_ASC_NODE = 74.6167
ARG_OF_PERICENTER = 270.0217
MEAN_ANOMALY   = 130.4126

EPHEMERIS_TYPE = 0
CLASSIFICATION_TYPE = U
NORAD_CAT_ID   = 67468
ELEMENT_SET_NO = 999
REV_AT_EPOCH   = 340
BSTAR          = -.64806134E-2
MEAN_MOTION_DOT = -.1342153E-1
MEAN_MOTION_DDOT = 0

CCSDS_OMM_VERS = 2.0
CREATION_DATE  = 
ORIGINATOR     = 

OBJECT_NAME    = STARLINK-36441
OBJECT_ID      = 2026-008AA
CENTER_NAME    = EARTH
REF_FRAME      = TEME
TIME_SYSTEM    = UTC
MEAN_ELEMENT_THEORY = SGP/SGP4

EPOCH          = 2026-01-28T22:00:01.999584
MEAN_MOTION    = 15.83748295
ECCENTRICITY   = .00014446
INCLINATION    = 43.0016
RA_OF_ASC_NODE = 74.5775
ARG_OF_PERICENTER = 275.2779
MEAN_ANOMALY   = 140.4493

EPHEMERIS_TYPE = 0
CLASSIFICATION_TYPE = U
NORAD_CAT_ID   = 67469
ELEMENT_SET_NO = 999
REV_AT_EPOCH   = 340
BSTAR          = -.72458043E-2
MEAN_MOTION_DOT = -.1466778E-1
MEAN_MOTION_DDOT = 0

CCSDS_OMM_VERS = 2.0
CREATION_DATE  = 
ORIGINATOR     = 

OBJECT_NAME    = STARLINK-36454
OBJECT_ID      = 2026-008AB
CENTER_NAME    = EARTH
REF_FRAME      = TEME
TIME_SYSTEM    = UTC
MEAN_ELEMENT_THEORY = SGP/SGP4

EPOCH          = 2026-01-28T22:00:01.999584
MEAN_MOTION    = 15.83458121
ECCENTRICITY   = .00014547
INCLINATION    = 43.0013
RA_OF_ASC_NODE = 74.5615
ARG_OF_PERICENTER = 272.6521
MEAN_ANOMALY   = 149.3514

EPHEMERIS_TYPE = 0
CLASSIFICATION_TYPE = U
NORAD_CAT_ID   = 67470
ELEMENT_SET_NO = 999
REV_AT_EPOCH   = 340
BSTAR          = -.76171481E-2
MEAN_MOTION_DOT = -.1514179E-1
MEAN_MOTION_DDOT = 0

CCSDS_OMM_VERS = 2.0
CREATION_DATE  = 
ORIGINATOR     = 

OBJECT_NAME    = STARLINK-36334
OBJECT_ID      = 2026-008AC
CENTER_NAME    = EARTH
REF_FRAME      = TEME
TIME_SYSTEM    = UTC
MEAN_ELEMENT_THEORY = SGP/SGP4

EPOCH          = 2026-01-28T22:00:01.999584
MEAN_MOTION    = 15.84122405
ECCENTRICITY   = .00016267
INCLINATION    = 43.0015
RA_OF_ASC_NODE = 74.5976
ARG_OF_PERICENTER = 270.4092
MEAN_ANOMALY   = 137.3701

EPHEMERIS_TYPE = 0
CLASSIFICATION_TYPE = U
NORAD_CAT_ID   = 67471
ELEMENT_SET_NO = 999
REV_AT_EPOCH   = 340
BSTAR          = -.68248966E-2
MEAN_MOTION_DOT = -.1386267E-1
MEAN_MOTION_DDOT = 0

CCSDS_OMM_VERS = 2.0
CREATION_DATE  = 
ORIGINATOR     = 

OBJECT_NAME    = STARLINK-36269
OBJECT_ID      = 2026-008AD
CENTER_NAME    = EARTH
REF_FRAME      = TEME
TIME_SYSTEM    = UTC
MEAN_ELEMENT_THEORY = SGP/SGP4

EPOCH          = 2026-01-28T22:00:01.999584
MEAN_MOTION    = 15.83016408
ECCENTRICITY   = .0001325
INCLINATION    = 43.0012
RA_OF_ASC_NODE = 74.5405
ARG_OF_PERICENTER = 273.6771
MEAN_ANOMALY   = 156.3905

EPHEMERIS_TYPE = 0
CLASSIFICATION_TYPE = U
NORAD_CAT_ID   = 67472
ELEMENT_SET_NO = 999
REV_AT_EPOCH   = 342
BSTAR          = -.87803116E-2
MEAN_MOTION_DOT = -.1682481E-1
MEAN_MOTION_DDOT = 0

CCSDS_OMM_VERS = 2.0
CREATION_DATE  = 
ORIGINATOR     = 

OBJECT_NAME    = STARLINK-36408
OBJECT_ID      = 2026-008AE
CENTER_NAME    = EARTH
REF_FRAME      = TEME
TIME_SYSTEM    = UTC
MEAN_ELEMENT_THEORY = SGP/SGP4

EPOCH          = 2026-01-28T22:00:01.999584
MEAN_MOTION    = 15.82175174
ECCENTRICITY   = .00013524
INCLINATION    = 43.0013
RA_OF_ASC_NODE = 74.5113
ARG_OF_PERICENTER = 275.4987
MEAN_ANOMALY   = 166.1802

EPHEMERIS_TYPE = 0
CLASSIFICATION_TYPE = U
NORAD_CAT_ID   = 67473
ELEMENT_SET_NO = 999
REV_AT_EPOCH   = 342
BSTAR          = -.9807661E-2
MEAN_MOTION_DOT = -.1827237E-1
MEAN_MOTION_DDOT = 0

CCSDS_OMM_VERS = 2.0
CREATION_DATE  = 
ORIGINATOR     = 

OBJECT_NAME    = ALSAT-3A
OBJECT_ID      = 2026-009A
CENTER_NAME    = EARTH
REF_FRAME      = TEME
TIME_SYSTEM    = UTC
MEAN_ELEMENT_THEORY = SGP/SGP4

EPOCH          = 2026-01-28T22:14:51.011520
MEAN_MOTION    = 15.03032690
ECCENTRICITY   = .0099531
INCLINATION    = 97.1800
RA_OF_ASC_NODE = 102.3906
ARG_OF_PERICENTER = 174.9651
MEAN_ANOMALY   = 185.2602

EPHEMERIS_TYPE = 0
CLASSIFICATION_TYPE = U
NORAD_CAT_ID   = 67474
ELEMENT_SET_NO = 999
REV_AT_EPOCH   = 207
BSTAR          = .41161724E-3
MEAN_MOTION_DOT = .6118E-4
MEAN_MOTION_DDOT = 0

CCSDS_OMM_VERS = 2.0
CREATION_DATE  = 
ORIGINATOR     = 

OBJECT_NAME    = CZ-2C R/B
OBJECT_ID      = 2026-009B
CENTER_NAME    = EARTH
REF_FRAME      = TEME
TIME_SYSTEM    = UTC
MEAN_ELEMENT_THEORY = SGP/SGP4

EPOCH          = 2026-01-28T22:34:14.801376
MEAN_MOTION    = 15.23260831
ECCENTRICITY   = .00116125
INCLINATION    = 97.4705
RA_OF_ASC_NODE = 103.6525
ARG_OF_PERICENTER = 208.0490
MEAN_ANOMALY   = 152.0122

EPHEMERIS_TYPE = 0
CLASSIFICATION_TYPE = U
NORAD_CAT_ID   = 67475
ELEMENT_SET_NO = 999
REV_AT_EPOCH   = 210
BSTAR          = .48727352E-3
MEAN_MOTION_DOT = .11504E-3
MEAN_MOTION_DDOT = 0

CCSDS_OMM_VERS = 2.0
CREATION_DATE  = 
ORIGINATOR     = 

OBJECT_NAME    = TIANQI-37
OBJECT_ID      = 2026-010A
CENTER_NAME    = EARTH
REF_FRAME      = TEME
TIME_SYSTEM    = UTC
MEAN_ELEMENT_THEORY = SGP/SGP4

EPOCH          = 2026-01-28T21:18:48.129120
MEAN_MOTION    = 14.13725101
ECCENTRICITY   = .00123439
INCLINATION    = 44.9837
RA_OF_ASC_NODE = 343.9949
ARG_OF_PERICENTER = 16.9299
MEAN_ANOMALY   = 343.1949

EPHEMERIS_TYPE = 0
CLASSIFICATION_TYPE = U
NORAD_CAT_ID   = 67476
ELEMENT_SET_NO = 999
REV_AT_EPOCH   = 185
BSTAR          = .24654807E-3
MEAN_MOTION_DOT = .336E-5
MEAN_MOTION_DDOT = 0

CCSDS_OMM_VERS = 2.0
CREATION_DATE  = 
ORIGINATOR     = 

OBJECT_NAME    = TIANQI-38
OBJECT_ID      = 2026-010B
CENTER_NAME    = EARTH
REF_FRAME      = TEME
TIME_SYSTEM    = UTC
MEAN_ELEMENT_THEORY = SGP/SGP4

EPOCH          = 2026-01-28T22:58:07.760064
MEAN_MOTION    = 14.14078184
ECCENTRICITY   = .00113914
INCLINATION    = 44.9799
RA_OF_ASC_NODE = 343.6596
ARG_OF_PERICENTER = 20.5322
MEAN_ANOMALY   = 339.5973

EPHEMERIS_TYPE = 0
CLASSIFICATION_TYPE = U
NORAD_CAT_ID   = 67477
ELEMENT_SET_NO = 999
REV_AT_EPOCH   = 186
BSTAR          = .24162824E-3
MEAN_MOTION_DOT = .33E-5
MEAN_MOTION_DDOT = 0

CCSDS_OMM_VERS = 2.0
CREATION_DATE  = 
ORIGINATOR     = 

OBJECT_NAME    = TIANQI-39
OBJECT_ID      = 2026-010C
CENTER_NAME    = EARTH
REF_FRAME      = TEME
TIME_SYSTEM    = UTC
MEAN_ELEMENT_THEORY = SGP/SGP4

EPOCH          = 2026-01-28T22:57:29.449440
MEAN_MOTION    = 14.13516187
ECCENTRICITY   = .00146146
INCLINATION    = 44.9853
RA_OF_ASC_NODE = 343.6614
ARG_OF_PERICENTER = 28.9037
MEAN_ANOMALY   = 331.2609

EPHEMERIS_TYPE = 0
CLASSIFICATION_TYPE = U
NORAD_CAT_ID   = 67478
ELEMENT_SET_NO = 999
REV_AT_EPOCH   = 186
BSTAR          = .23965798E-3
MEAN_MOTION_DOT = .321E-5
MEAN_MOTION_DDOT = 0

CCSDS_OMM_VERS = 2.0
CREATION_DATE  = 
ORIGINATOR     = 

OBJECT_NAME    = TIANQI-40
OBJECT_ID      = 2026-010D
CENTER_NAME    = EARTH
REF_FRAME      = TEME
TIME_SYSTEM    = UTC
MEAN_ELEMENT_THEORY = SGP/SGP4

EPOCH          = 2026-01-27T07:57:11.306304
MEAN_MOTION    = 14.14461443
ECCENTRICITY   = .00116095
INCLINATION    = 44.9852
RA_OF_ASC_NODE = 351.0701
ARG_OF_PERICENTER = 6.7830
MEAN_ANOMALY   = 353.3164

EPHEMERIS_TYPE = 0
CLASSIFICATION_TYPE = U
NORAD_CAT_ID   = 67479
ELEMENT_SET_NO = 999
REV_AT_EPOCH   = 163
BSTAR          = .21354355E-3
MEAN_MOTION_DOT = .279E-5
MEAN_MOTION_DDOT = 0

