STARLINK-36414          
1 67468U 26008Z   26028.91668981 -.01342153  00000+0 -64806-2 0  9999
2 67468  43.0016  74.6167 0001752 270.0217 130.4126 15.84423634  3406
STARLINK-36441          
1 67469U 26008AA  26028.91668981 -.01466778  00000+0 -72458-2 0  9992
2 67469  43.0016  74.5775 0001444 275.2779 140.4493 15.83748295  3409
STARLINK-36454          
1 67470U 26008AB  26028.91668981 -.01514179  00000+0 -76171-2 0  9999
2 67470  43.0013  74.5615 0001454 272.6521 149.3514 15.83458121  3406
STARLINK-36334          
1 67471U 26008AC  26028.91668981 -.01386267  00000+0 -68249-2 0  9992
2 67471  43.0015  74.5976 0001626 270.4092 137.3701 15.84122405  3408
STARLINK-36269          
1 67472U 26008AD  26028.91668981 -.01682481  00000+0 -87803-2 0  9997
2 67472  43.0012  74.5405 0001325 273.6771 156.3905 15.83016408  3421
STARLINK-36408          
1 67473U 26008AE  26028.91668981 -.01827237  00000+0 -98077-2 0  9993
2 67473  43.0013  74.5113 0001352 275.4987 166.1802 15.82175174  3428
ALSAT-3A                
1 67474U 26009A   26028.92697930  .00006118  00000+0  41162-3 0  9990
2 67474  97.1800 102.3906 0099531 174.9651 185.2602 15.03032690  2078
CZ-2C R/B               
1 67475U 26009B   26028.94044909  .00011504  00000+0  48727-3 0  9994
2 67475  97.4705 103.6525 0011612 208.0490 152.0122 15.23260831  2106
TIANQI-37               
1 67476U 26010A   26028.88805705  .00000336  00000+0  24655-3 0  9994
2 67476  44.9837 343.9949 0012343  16.9299 343.1949 14.13725101  1859
TIANQI-38               
1 67477U 26010B   26028.95703426  .00000330  00000+0  24163-3 0  9998
2 67477  44.9799 343.6596 0011391  20.5322 339.5973 14.14078184  1862
TIANQI-39               
1 67478U 26010C   26028.95659085  .00000321  00000+0  23966-3 0  9990
2 67478  44.9853 343.6614 0014614  28.9037 331.2609 14.13516187  1865
TIANQI-40               
1 67479U 26010D   26027.33138086  .00000279  00000+0  21354-3 0  9996
2 67479  44.9852 351.0701 0011609   6.7830 353.3164 14.14461443  1632
